GLOBALSTAR M001         
1 25162U 98008A   24239.41589606 -.00000051  00000+0  34739-3 0  9995
2 25162  52.0027 111.1690 0001973  12.4616 158.7015 12.38192600207191
GLOBALSTAR M004         
1 25163U 98008B   24239.71547889 -.00000050  00000+0  29716-3 0  9994
2 25163  51.9975 232.4990 0003053 359.7629 171.5313 12.63369440224463
GLOBALSTAR M002         
1 25164U 98008C   24239.76230617 -.00000083  00000+0 -12191-3 0  9994
2 25164  51.9993 258.4251 0001283 327.5043  32.5697 11.61503171149856
GLOBALSTAR M003         
1 25165U 98008D   24239.82351675  .00000042  00000+0  14059-2 0  9997
2 25165  51.9903 263.7837 0008063  63.4543 107.6379 12.12030634197525
GLOBALSTAR M014         
1 25306U 98023A   24239.63549616 -.00000062  00000+0  29739-3 0  9999
2 25306  51.9817 188.1572 0000539 161.5601   9.5385 11.65470425156825
GLOBALSTAR M006         
1 25307U 98023B   24239.68104439 -.00000045  00000+0  61871-3 0  9999
2 25307  51.9903 229.5094 0003810 295.4667 236.5568 11.58165154182708
GLOBALSTAR M015         
1 25308U 98023C   24239.52366427 -.00000042  00000+0  71904-3 0  9995
2 25308  51.9843 314.8710 0012274 270.7645 102.0316 11.48849218160580
GLOBALSTAR M008         
1 25309U 98023D   24239.55482219 -.00000060  00000+0  28440-3 0  9994
2 25309  51.9997 332.2582 0002005 269.0156 104.0496 12.36047357201726
